full_name,epoch_mjd,a,e,i,om,w,ma,per_y
"362321 (2010 BC125)",57400,5.217760217667924,.07386182774341826,26.98671775181122,174.000571084696,233.2121347243094,192.312774359011,11.9188506560866
"362915 (2012 CS40)",57400,5.245987935595052,.04120222095421946,10.81528119290872,127.8521268614278,281.7226120098268,213.9368428985553,12.0157015737289
"362965 (2013 BU56)",57400,5.086564798591996,.07112375323248699,10.12448835463958,120.9712862800329,298.4183735911206,147.6448437836613,11.4721568038135
"362976 (2013 CK36)",57400,5.330714678682734,.05446140914869155,10.85382852153747,217.1268004232384,246.0493471202522,128.3980833958218,12.3079680216267
"362981 (2013 CK58)",57400,5.21771188115064,.08812792134527446,25.77895251440802,161.1791111811151,297.5624344204406,136.0237708290938,11.9186850349084
"362982 (2013 CT58)",57400,5.153716707948262,.19861666432989,10.95600611578825,150.2937481524552,267.5806944295789,159.3553243398883,11.7000849712631
"365037 (2008 SQ261)",57400,5.165313197234131,.08203163279857924,7.405126423234429,14.99000305008925,73.65164267415049,153.3078137974497,11.7395970980973
"365301 (2009 RC63)",57400,5.322765904834928,.09603845892842273,10.55455422052891,186.1374528785546,243.0644559677438,141.2013000959049,12.2804491670176
"365475 (2010 PF26)",57400,5.169799334833462,.0200163471696073,13.7603387426584,73.09147288243165,352.3308282596557,160.7046502550532,11.7548943935631
"365652 (2010 VS25)",57400,5.244522039541245,.1023487118722356,12.01160400447426,65.58890242366803,75.79608584374138,88.05756636691773,12.0106655712016
"365663 (2010 VA46)",57400,5.235505797084206,.1896679833536978,17.1240039763512,55.1938741387689,14.61586795246705,150.3827951139319,11.9797062628265
"365695 (2010 VD119)",57400,5.123751398761324,.06733081659150811,10.73230107510351,232.5817407222249,281.1796444330016,77.4690738349701,11.5981915507117
"365724 (2010 VC188)",57400,5.219259665178541,.1250407001923531,11.42245522285143,86.74986406526786,71.9219343843742,60.93924406431766,11.9239887730475
"365918 (2011 WL136)",57400,5.219500957000843,.1374464617019242,6.744092624961234,316.4185491354723,163.3596909220182,101.2787000380705,11.9248156702756
"366253 (2012 YS2)",57400,5.243691054851446,.07480248740522009,10.3473676869194,136.0591828167643,321.7440780010662,108.9377605397202,12.0078110831005
"366254 (2012 YY2)",57400,5.1322970037314,.08677104026152006,6.462586545560958,222.9306467757425,222.9388448690009,144.241126564159,11.6272195627842
"366262 (2013 AD19)",57400,5.301741784969268,.03379756417509358,15.42524823677248,127.6951725949479,309.2579382522347,136.9021565687,12.2077621871827
"366264 (2013 AM22)",57400,5.352023694270168,.03584664618915554,15.56311607833748,134.8174177978053,308.1121954846722,138.5432251655314,12.381841589516
"366269 (2013 AN37)",57400,5.203658974207914,.0807292958202233,3.762791790712454,112.5011339489749,21.61318695495697,80.8452108689183,11.8705664301071
"366287 (2013 AR132)",57400,5.200221679497685,.2136388331594734,12.03135605839993,18.02083194542336,153.8225566315602,65.8961409258732,11.8588066578263
"366317 (2013 CV197)",57400,5.151502644942373,.09076019767154818,7.908244787716364,162.7421298891292,308.1585715389485,123.4718231817085,11.6925461567428
"368086 (2012 TE297)",57400,5.127906723479023,.0296634838906273,27.1374771292375,22.9565842348925,325.8599761189492,118.7296655323437,11.6123034830408
"368097 (2013 BN)",57400,5.199724339929408,.06528971022722621,10.40004725205578,78.39462519438034,2.833400193503336,123.3739757867919,11.8571054670512
"368102 (2013 CW191)",57400,5.176774586436315,.1127621585122648,23.82112711540139,350.1588412236175,143.4589236635032,85.85898267996789,11.7786925116568
"369881 (2012 MF6)",57400,5.174943645515829,.04202178283756978,27.06414365324145,250.92811066349,322.9853982289421,232.4505811941936,11.7724441664537
"369886 (2012 RM6)",57400,5.22368902547568,.0682780565609858,26.0082988891892,1.214659527326351,52.90531825379043,39.81371192709275,11.9391710545916
"369917 (2013 CH196)",57400,5.20048744261106,.07144824678460177,7.52637496721618,98.50927549025424,3.407528242495119,130.1710757960834,11.8597157556992
"369977 (1997 JC11)",57400,5.23017243512754,.02639931079698079,32.07080844091814,92.28584951983429,276.580615146376,71.33233196172765,11.9614054994135
"370087 (2001 SG221)",57400,5.237944659748393,.2022291627894275,6.615608395133234,181.7106496083258,214.644889266629,50.59041164324566,11.9880780214682
"370105 (2001 TA132)",57400,5.170385021377942,.03162706619033204,19.98593382145885,12.86251636823355,6.235038703203402,70.16558253455916,11.7568920180413
"371203 (2005 YS289)",57400,5.264767199643443,.05540643260943801,7.443655579662433,111.9707576065873,190.0545752426283,127.0463995974371,12.0802788812266
"371254 (2006 BL173)",57400,5.064823861189693,.04707706491947786,2.221696838061304,197.0956098788012,32.88738965231585,216.3196393616297,11.39868420969
"371522 (2006 UG185)",57400,4.811379867354657,.1279136533115567,20.04107101825416,131.7549778100977,302.2435441013321,354.2172819094313,10.5538926448009
"371682 (2007 DE30)",57400,5.175737614616332,.05302632947344707,11.26990707772185,350.5857493844806,13.59229427970464,69.66338523454984,11.7751535627445
"371743 (2007 EL192)",57400,5.199433880092545,.06040435109798276,6.68297745452009,22.86193266172382,186.2863152418658,245.7023644256849,11.8561119629928
"371911 (2008 DB47)",57400,5.221171045238869,.09680718688706731,12.96651057423342,29.42911591218059,238.7384115433622,169.7875758502892,11.9305395184649
"371918 (2008 DX81)",57400,5.164340931758733,.04878052436380691,13.84315275670731,19.83671426486231,281.7671023733496,126.0564825273561,11.736282642404
"373381 (2012 RT4)",57400,5.129705033357816,.08055768820162171,16.63868038411856,279.8141051488145,54.19901197672437,121.9996095348085,11.6184125111244
"373543 (2001 TH250)",57400,5.170873063524874,.03798999401991629,24.10202437151684,22.15847033000647,304.5269035348416,116.3987755588863,11.7585566892982
"373813 (2002 VP139)",57400,5.265987513741431,.02553458897005447,17.0363330926893,31.5660139335124,304.5515426233051,104.9095043657348,12.0844792347114
"373820 (2002 WG29)",57400,5.216591589936193,.04809215829063468,11.91571872482492,58.97561431059162,12.51210477637412,14.24867134693678,11.9148466623546
"373985 (2003 YL165)",57400,5.155025716064218,.05324123548265075,12.59465156312285,90.74084043478571,253.9215838852548,94.62741852548578,11.7045428643293
"374183 (2004 XV159)",57400,5.212907970654674,.05087920404529789,16.44853067152674,307.298991197436,82.81390861598686,42.98205356615001,11.902228650419
"374213 (2005 ER272)",57400,5.229635251028646,.07910897019281281,3.118666026003625,244.5314701114947,205.2022344160965,7.170912289806513,11.9595627365055
"374564 (2006 BD226)",57400,5.094322334812921,.03688652719731159,4.067005367835405,311.5047042300727,61.58698296282214,88.98333111162607,11.4984111420768
"374580 (2006 CJ52)",57400,5.183826003531325,.03944269132796087,17.0387974106975,140.3683785016984,102.8439975634354,200.9515342720294,11.8027667926398
"374605 (2006 DK133)",57400,5.185100606490235,.03541943858738883,18.45297631723944,358.4208878876556,318.1424993946424,151.1516073700219,11.807120169714
"374613 (2006 DQ216)",57400,5.206557786377171,.07688098006156419,33.85068583255819,348.3814724500099,111.6438444458891,358.0311204423734,11.8804869498132
"375211 (2008 EQ163)",57400,5.1854621014254,.05037740563497341,32.29588012834245,19.11261190607856,245.4383370021254,175.249408603287,11.808354944752
"375231 (2008 FZ93)",57400,5.18668044044788,.04521847172926794,17.02889716582148,191.1194404346542,347.3829686349753,268.3702212675274,11.8125167988976
"375237 (2008 FA136)",57400,5.166603396652275,.02692875713875072,6.336237647260724,60.25644295613873,189.6694932960437,216.5225988411412,11.7439958731235
"375241 (2008 GM11)",57400,5.199817780479296,.008076385985590915,28.15640528090756,41.53219026747081,264.048862707038,155.411979447899,11.8574250819077
"375244 (2008 GV36)",57400,5.252374818265581,.07513231418729373,20.4946156416261,198.2459055791037,4.416580663380642,248.3121860974926,12.0376515564337
"375252 (2008 GH89)",57400,5.14064807444301,.01059388850241224,14.59657464626087,35.76886246771387,168.4032154323589,243.2249888241907,11.6556101317196
"375253 (2008 GO91)",57400,5.064751968254019,.02705365794666701,8.504246836230012,193.1093418314063,133.9195856337537,126.9345719922385,11.3984415116263
"375257 (2008 GW100)",57400,5.268156229939182,.1130328245843539,13.60532038031205,50.66935114583568,218.1653077832511,191.3380357795082,12.0919452144326
"375259 (2008 GL115)",57400,5.186672045715104,.07919395783320855,30.82968680330606,47.78232423642088,285.2898552258585,122.2403664576225,11.8124881207625
"375265 (2008 GJ141)",57400,5.206468580543683,.04132112482822631,25.91004801620254,57.44491209035291,205.9065688784552,208.318390420403,11.8801816221156
"375266 (2008 GV141)",57400,5.25534695780151,.04895541052048256,12.7315268619834,131.2862177113503,320.9875121330986,2.490809567445321,12.0478705456145
"375669 (2009 FA32)",57400,5.302102869442603,.07482100168182709,25.92869234837425,21.5665272363858,285.8724451410617,138.866888629506,12.2090093551736
"376067 (2010 HY30)",57400,5.225036897104715,.08333303183089354,20.32764357406034,277.1795995968973,298.2091022260926,237.7049459410339,11.9437923599286
"376370 (2011 OX26)",57400,5.218470546030146,.08058093780407663,8.795991750283624,105.9868680429323,221.1537852207672,108.3152370650005,11.9212846274028
"376371 (2011 OU44)",57400,5.196897435730646,.1777444020491962,3.551041109217116,169.7092259706463,161.3186509753633,127.5773083978087,11.8474373549931
"376373 (2011 SV21)",57400,5.183179114215643,.1080764454537926,5.047356505852805,319.0128938432281,299.3501920806769,208.2494644239242,11.8005575617952
"376488 (2012 KR8)",57400,5.218444366770499,.02540525833491009,31.00225985255541,206.3916526368609,131.648210150605,111.3360172864419,11.9211949200801
